[{"OBJECT_NAME":"STARLINK-3339","OBJECT_ID":"2022-001T","EPOCH":"2026-03-09T13:14:39.663744","MEAN_MOTION":15.08839787,"ECCENTRICITY":0.00012607,"INCLINATION":53.2178,"RA_OF_ASC_NODE":169.7391,"ARG_OF_PERICENTER":106.5177,"MEAN_ANOMALY":253.5954,"EPHEMERIS_TYPE":0,"CLASSIFICATION_TYPE":"U","NORAD_CAT_ID":50820,"ELEMENT_SET_NO":999,"REV_AT_EPOCH":23038,"BSTAR":-3.018521e-6,"MEAN_MOTION_DOT":-3.36e-6,"MEAN_MOTION_DDOT":0},{"OBJECT_NAME":"CZ-4B DEB","OBJECT_ID":"2004-035K","EPOCH":"2026-03-08T06:51:30.377664","MEAN_MOTION":15.09293825,"ECCENTRICITY":0.00031468,"INCLINATION":97.5843,"RA_OF_ASC_NODE":91.2716,"ARG_OF_PERICENTER":107.6302,"MEAN_ANOMALY":252.527,"EPHEMERIS_TYPE":0,"CLASSIFICATION_TYPE":"U","NORAD_CAT_ID":29043,"ELEMENT_SET_NO":999,"REV_AT_EPOCH":10418,"BSTAR":0.00031897975,"MEAN_MOTION_DOT":5.021e-5,"MEAN_MOTION_DDOT":0}]
